IRIDIUM 112             
1 41925U 17003J   25003.38117977  .00000611  00000+0  21098-3 0  9995
2 41925  86.3982 309.6957 0002332  79.4861 280.6597 14.34218317417332
IRIDIUM 111             
1 41926U 17003K   25004.13594766  .00000214  00000+0  69278-4 0  9997
2 41926  86.3979 309.4393 0001996  84.8097 275.3326 14.34219586417494
IRIDIUM 113             
1 42803U 17039A   25003.76707055  .00000653  00000+0  22605-3 0  9995
2 42803  86.3994 183.4058 0002013  76.8874 283.2546 14.34216733395307
IRIDIUM 123             
1 42804U 17039B   25004.29692986  .00000130  00000+0  39383-4 0  9993
2 42804  86.3970 214.6209 0001819  92.9713 267.1691 14.34218101394145
IRIDIUM 120             
1 42805U 17039C   25003.76072943  .00000009  00000+0 -36976-5 0  9992
2 42805  86.3989 183.2600 0001886 101.7597 258.3810 14.34218074395296
IRIDIUM 115             
1 42806U 17039D   25003.91627445  .00000418  00000+0  11842-3 0  9999
2 42806  86.4525 183.2496 0001497  94.3028 265.8344 14.43275676397929
IRIDIUM 118             
1 42807U 17039E   25003.84026364  .00000144  00000+0  44532-4 0  9994
2 42807  86.3973 214.8125 0001992  87.0998 273.0426 14.34218357394079
IRIDIUM 117             
1 42808U 17039F   25004.55697540  .00000110  00000+0  32077-4 0  9998
2 42808  86.3970 214.4757 0001663  92.6437 267.4949 14.34217718394212
